[{"OBJECT_NAME":"EYESAT A (AO-27)","OBJECT_ID":"1993-061C","EPOCH":"2026-03-09T16:58:07.157856","MEAN_MOTION":14.30913089,"ECCENTRICITY":0.00089503,"INCLINATION":98.6982,"RA_OF_ASC_NODE":136.1171,"ARG_OF_PERICENTER":38.8989,"MEAN_ANOMALY":321.2837,"EPHEMERIS_TYPE":0,"CLASSIFICATION_TYPE":"U","NORAD_CAT_ID":22825,"ELEMENT_SET_NO":999,"REV_AT_EPOCH":69277,"BSTAR":7.1797441e-5,"MEAN_MOTION_DOT":1.44e-6,"MEAN_MOTION_DDOT":0},{"OBJECT_NAME":"CZ-2C DEB","OBJECT_ID":"2004-046D","EPOCH":"2026-03-09T23:02:02.478624","MEAN_MOTION":14.51071818,"ECCENTRICITY":0.01041945,"INCLINATION":98.6274,"RA_OF_ASC_NODE":154.2134,"ARG_OF_PERICENTER":141.0148,"MEAN_ANOMALY":319.3332,"EPHEMERIS_TYPE":0,"CLASSIFICATION_TYPE":"U","NORAD_CAT_ID":28482,"ELEMENT_SET_NO":999,"REV_AT_EPOCH":11423,"BSTAR":0.0014344622,"MEAN_MOTION_DOT":6.049e-5,"MEAN_MOTION_DDOT":0}]
